{"fetched_at":"2026-03-29T16:36:15Z","count":15609,"tles":[{"name":"STARLINK-35628","line1":"1 66123U 25237K   26087.82999409  .00025808  00000+0  87987-3 0  9994","line2":"2 66123  53.1578 310.5310 0000954 107.0187 253.0919 15.30221571 25546","category":"Starlink"}]}