{
  "norad_id": 66123,
  "name": "STARLINK-35628",
  "history": [
    {
      "epoch": "2026-03-28T19:55:11.489376Z",
      "apogee_km": 475.8048778984439,
      "perigee_km": 474.49644821781203,
      "latitude_deg": 5.240426844919486e-05,
      "longitude_deg": -174.5116487578672,
      "height_km": 476.2404579285709,
      "semi_major_axis_km": 6853.287663058128,
      "eccentricity": 9.546e-05,
      "inclination_deg": 53.1578,
      "raan_deg": 310.531,
      "arg_perigee_deg": 107.0187,
      "mean_anomaly_deg": 253.0919,
      "mean_motion_rev_day": 15.30221571
    }
  ]
}